IRIDIUM 112             
1 41925U 17003J   25351.52608891  .00000031  00000+0  39165-5 0  9999
2 41925  86.3983 164.2142 0001842  87.9465 272.1941 14.34217522467233
IRIDIUM 111             
1 41926U 17003K   25351.58317365  .00000001  00000+0 -65346-5 0  9997
2 41926  86.3991 164.2570 0001862  94.0496 266.0912 14.34217629467220
IRIDIUM 113             
1 42803U 17039A   25351.63290735  .00000045  00000+0  91672-5 0  9996
2 42803  86.3971  38.0500 0001950  94.0114 266.1305 14.34217773445165
IRIDIUM 123             
1 42804U 17039B   25351.60461898  .00000190  00000+0  60891-4 0  9993
2 42804  86.3965  69.5458 0002153 105.0536 255.0899 14.34217352443927
IRIDIUM 120             
1 42805U 17039C   25351.62656592  .00000213  00000+0  68900-4 0  9998
2 42805  86.3960  37.8587 0002512  95.6869 264.4613 14.34218247445155
IRIDIUM 115             
1 42806U 17039D   25351.61044297  .00000329  00000+0  91888-4 0  9990
2 42806  86.4496  37.9693 0002567 104.6741 255.4745 14.43277557448079
IRIDIUM 118             
1 42807U 17039E   25351.63633024  .00000003  00000+0 -59399-5 0  9997
2 42807  86.3962  69.5312 0001889  97.0773 263.0637 14.34215246443923
IRIDIUM 117             
1 42808U 17039F   25351.58558971  .00000261  00000+0  86119-4 0  9993
2 42808  86.3965  69.5120 0002085 102.5494 257.5935 14.34218435443949
